RANGE-A                 
1 43773U 18099R   26138.09108453  .00002964  00000+0  17074-3 0  9993
2 43773  97.3985 181.5536 0012139  92.4687 267.7934 15.13102014407948
SNUSAT-2                
1 43782U 18099AA  26138.41127389  .00005120  00000+0  23135-3 0  9990
2 43782  97.4076 192.2602 0011302  48.4641 311.7563 15.21339075408504
SNUGLITE                
1 43784U 18099AC  26138.38954317  .00006594  00000+0  25559-3 0  9995
2 43784  97.3886 192.9754 0003861  60.6107 299.5517 15.26466983408778
ITASAT                  
1 43786U 18099AE  26138.50677832  .00004478  00000+0  21898-3 0  9996
2 43786  97.4047 190.6166 0014408  96.9105 263.3769 15.18635187408404
EAGLET-I                
1 43790U 18099AJ  26138.42034142  .00002986  00000+0  17396-3 0  9993
2 43790  97.4250 188.8795 0012876  90.0655 270.2052 15.12687223407834
ESEO                    
1 43792U 18099AL  26138.37822125  .00001256  00000+0  94604-4 0  9992
2 43792  97.4001 177.0412 0013614  77.8661 282.4090 15.04148967407326
THEA                    
1 43796U 18099AQ  26138.46574017  .00010598  00000+0  32501-3 0  9996
2 43796  97.4455 207.8914 0007815  42.7062 317.4787 15.33923359408134
ASTROCAST 0.1           
1 43798U 18099AS  26138.47071426  .00018469  00000+0  36163-3 0  9998
2 43798  97.4388 216.0881 0003485 333.9719  26.1355 15.47448506409833
JY1SAT (JO-97)          
1 43803U 18099AX  26138.13764392  .00011444  00000+0  36543-3 0  9997
2 43803  97.4145 200.8886 0005852  34.7500 325.4123 15.32623556409024
SUOMI-100               
1 43804U 18099AY  26138.14846792  .00008400  00000+0  31287-3 0  9992
2 43804  97.4205 198.6673 0010521  36.1222 324.0726 15.27665042408838
CENTAURI-1              
1 43809U 18099BD  26138.50770789  .00003610  00000+0  19068-3 0  9990
2 43809  97.4238 190.8684 0015769  74.4395 285.8577 15.16029038408004
GLOBAL-2                
1 43812U 18099BG  26138.49176473  .00001684  00000+0  11189-3 0  9997
2 43812  97.3582 176.2410 0004228 250.0776 109.9998 15.08481288407436
SEAHAWK-1               
1 43820U 18099BQ  26138.10134441  .00006455  00000+0  28318-3 0  9996
2 43820  97.3976 191.0542 0009629  63.0684 297.1535 15.22266958407958
SAUDISAT 5A             
1 43831U 18102A   26138.49671729  .00003575  00000+0  13464-3 0  9996
2 43831  97.3081 200.6539 0008358 232.2288 127.8195 15.27713784411144
SAUDISAT 5B             
1 43833U 18102C   26138.52071940  .00003385  00000+0  12656-3 0  9992
2 43833  97.3187 203.6934 0009029 235.4143 124.6245 15.27987894411265
ISAT                    
1 43879U 18111D   26138.25592032  .00046913  00000+0  57695-3 0  9998
2 43879  97.5907  71.3017 0007653  71.8198 288.3890 15.60096693406490
UWE-4                   
1 43880U 18111E   26138.23030227  .00017673  00000+0  38669-3 0  9992
2 43880  97.5867  65.2881 0010514  78.2774 281.9652 15.44149759406151
D-STAR ONE (SPARROW)    
1 43881U 18111F   26138.30684480  .00071874  00000+0  68327-3 0  9994
2 43881  97.6137  76.5074 0007474  98.6132 261.5975 15.66601745406689
JILIN-1 09              
1 43943U 19005B   26138.49723348  .00003095  00000+0  14597-3 0  9993
2 43943  97.4726 233.7226 0002621 156.9508 203.1845 15.20224255404638
JILIN-1 10              
1 43946U 19005E   26138.54444769  .00003881  00000+0  15662-3 0  9996
2 43946  97.4768 237.3604 0008707  33.9309 326.2484 15.25367822404797
EGYPTSAT-A (MISRSAT-A)  
1 44047U 19008A   26138.51160392  .00000395  00000+0  70395-4 0  9998
2 44047  98.0055 203.7089 0001262  80.1658 279.9691 14.72269407388875
EMISAT                  
1 44078U 19018A   26138.48065404  .00000224  00000+0  78792-4 0  9997
2 44078  98.4665 197.4403 0017486 310.0402  49.9253 14.43672338375779
JILIN-1 GAOFEN 3A       
1 44312U 19032C   26138.42205522  .00005494  00000+0  18455-3 0  9998
2 44312  44.9725 160.6627 0003585 137.9627 222.1533 15.31923946383275
PROX-1                  
1 44339U 19036A   26138.52825701  .00007801  00000+0  76353-3 0  9994
2 44339  23.9963 312.2548 0006733  49.3837 310.7247 14.89847226369042
NPSAT1                  
1 44340U 19036B   26138.06801265  .00003702  00000+0  51074-3 0  9993
2 44340  23.9992  53.8719 0007670 228.3521 131.6318 14.74274327368042
FORMOSAT 7-3            
1 44343U 19036E   26138.37544777  .00003023  00000+0  16266-3 0  9992
2 44343  24.0001  23.6820 0000457 304.2232  55.8228 15.09553291378738
FORMOSAT 7-1            
1 44349U 19036L   26138.37406697  .00001638  00000+0  11512-3 0  9995
2 44349  23.9972 233.3663 0000761 158.6124 201.4408 14.96371235380185
FORMOSAT 7-4            
1 44350U 19036M   26137.72961212  .00001700  00000+0  12054-3 0  9996
2 44350  23.9987 299.8140 0000957 177.6657 182.3848 14.96363547379505
FORMOSAT 7-2            
1 44351U 19036N   26138.28544598  .00001756  00000+0  12536-3 0  9999
2 44351  23.9993 350.3803 0000529 178.6343 181.4159 14.96362321379100
