OBJECT_NAME,OBJECT_ID,EPOCH,MEAN_MOTION,ECCENTRICITY,INCLINATION,RA_OF_ASC_NODE,ARG_OF_PERICENTER,MEAN_ANOMALY,EPHEMERIS_TYPE,CLASSIFICATION_TYPE,NORAD_CAT_ID,ELEMENT_SET_NO,REV_AT_EPOCH,BSTAR,MEAN_MOTION_DOT,MEAN_MOTION_DDOT
RANGE-A,2018-099R,2026-05-18T02:11:09.703392,15.13102014,.0012139,97.3985,181.5536,92.4687,267.7934,0,U,43773,999,40794,.17074E-3,.2964E-4,0
SNUSAT-2,2018-099AA,2026-05-18T09:52:14.064096,15.21339075,.0011302,97.4076,192.2602,48.4641,311.7563,0,U,43782,999,40850,.23135E-3,.512E-4,0
SNUGLITE,2018-099AC,2026-05-18T09:20:56.529888,15.26466983,.0003861,97.3886,192.9754,60.6107,299.5517,0,U,43784,999,40877,.25559E-3,.6594E-4,0
ITASAT,2018-099AE,2026-05-18T12:09:45.646848,15.18635187,.0014408,97.4047,190.6166,96.9105,263.3769,0,U,43786,999,40840,.21898E-3,.4478E-4,0
EAGLET-I,2018-099AJ,2026-05-18T10:05:17.498688,15.12687223,.0012876,97.4250,188.8795,90.0655,270.2052,0,U,43790,999,40783,.17396E-3,.2986E-4,0
ESEO,2018-099AL,2026-05-18T09:04:38.316000,15.04148967,.0013614,97.4001,177.0412,77.8661,282.4090,0,U,43792,999,40732,.94604E-4,.1256E-4,0
THEA,2018-099AQ,2026-05-18T11:10:39.950688,15.33923359,.0007815,97.4455,207.8914,42.7062,317.4787,0,U,43796,999,40813,.32501E-3,.10598E-3,0
ASTROCAST 0.1,2018-099AS,2026-05-18T11:17:49.712064,15.47448506,.0003485,97.4388,216.0881,333.9719,26.1355,0,U,43798,999,40983,.36163E-3,.18469E-3,0
JY1SAT (JO-97),2018-099AX,2026-05-18T03:18:12.434688,15.32623556,.0005852,97.4145,200.8886,34.7500,325.4123,0,U,43803,999,40902,.36543E-3,.11444E-3,0
SUOMI-100,2018-099AY,2026-05-18T03:33:47.628288,15.27665042,.0010521,97.4205,198.6673,36.1222,324.0726,0,U,43804,999,40883,.31287E-3,.84E-4,0
CENTAURI-1,2018-099BD,2026-05-18T12:11:05.961696,15.16029038,.0015769,97.4238,190.8684,74.4395,285.8577,0,U,43809,999,40800,.19068E-3,.361E-4,0
GLOBAL-2,2018-099BG,2026-05-18T11:48:08.472672,15.08481288,.0004228,97.3582,176.2410,250.0776,109.9998,0,U,43812,999,40743,.11189E-3,.1684E-4,0
SEAHAWK-1,2018-099BQ,2026-05-18T02:25:56.157024,15.22266958,.0009629,97.3976,191.0542,63.0684,297.1535,0,U,43820,999,40795,.28318E-3,.6455E-4,0
SAUDISAT 5A,2018-102A,2026-05-18T11:55:16.373856,15.27713784,.0008358,97.3081,200.6539,232.2288,127.8195,0,U,43831,999,41114,.13464E-3,.3575E-4,0
SAUDISAT 5B,2018-102C,2026-05-18T12:29:50.156160,15.27987894,.0009029,97.3187,203.6934,235.4143,124.6245,0,U,43833,999,41126,.12656E-3,.3385E-4,0
ISAT,2018-111D,2026-05-18T06:08:31.515648,15.60096693,.0007653,97.5907,71.3017,71.8198,288.3890,0,U,43879,999,40649,.57695E-3,.46913E-3,0
UWE-4,2018-111E,2026-05-18T05:31:38.116128,15.44149759,.0010514,97.5867,65.2881,78.2774,281.9652,0,U,43880,999,40615,.38669E-3,.17673E-3,0
D-STAR ONE (SPARROW),2018-111F,2026-05-18T07:21:51.390720,15.66601745,.0007474,97.6137,76.5074,98.6132,261.5975,0,U,43881,999,40668,.68327E-3,.71874E-3,0
JILIN-1 09,2019-005B,2026-05-18T11:56:00.972672,15.20224255,.0002621,97.4726,233.7226,156.9508,203.1845,0,U,43943,999,40463,.14597E-3,.3095E-4,0
JILIN-1 10,2019-005E,2026-05-18T13:04:00.280416,15.25367822,.0008707,97.4768,237.3604,33.9309,326.2484,0,U,43946,999,40479,.15662E-3,.3881E-4,0
EGYPTSAT-A (MISRSAT-A),2019-008A,2026-05-18T12:16:42.578688,14.72269407,.0001262,98.0055,203.7089,80.1658,279.9691,0,U,44047,999,38887,.70395E-4,.395E-5,0
EMISAT,2019-018A,2026-05-18T11:32:08.509056,14.43672338,.0017486,98.4665,197.4403,310.0402,49.9253,0,U,44078,999,37577,.78792E-4,.224E-5,0
JILIN-1 GAOFEN 3A,2019-032C,2026-05-18T10:07:45.571008,15.31923946,.0003585,44.9725,160.6627,137.9627,222.1533,0,U,44312,999,38327,.18455E-3,.5494E-4,0
PROX-1,2019-036A,2026-05-18T12:40:41.405664,14.89847226,.0006733,23.9963,312.2548,49.3837,310.7247,0,U,44339,999,36904,.76353E-3,.7801E-4,0
NPSAT1,2019-036B,2026-05-18T01:37:56.292960,14.74274327,.000767,23.9992,53.8719,228.3521,131.6318,0,U,44340,999,36804,.51074E-3,.3702E-4,0
FORMOSAT 7-3,2019-036E,2026-05-18T09:00:38.687328,15.09553291,.0000457,24.0001,23.6820,304.2232,55.8228,0,U,44343,999,37873,.16266E-3,.3023E-4,0
FORMOSAT 7-1,2019-036L,2026-05-18T08:58:39.386208,14.96371235,.0000761,23.9972,233.3663,158.6124,201.4408,0,U,44349,999,38018,.11512E-3,.1638E-4,0
FORMOSAT 7-4,2019-036M,2026-05-17T17:30:38.487168,14.96363547,.00009576,23.9987,299.8140,177.6657,182.3848,0,U,44350,999,37950,.12053996E-3,.17E-4,0
FORMOSAT 7-2,2019-036N,2026-05-18T06:51:02.532672,14.96362321,.0000529,23.9993,350.3803,178.6343,181.4159,0,U,44351,999,37910,.12536E-3,.1756E-4,0
